{
  "type": "FeatureCollection",
  "generator": "overpass-turbo",
  "copyright": "The data included in this document is from www.openstreetmap.org. The data is made available under ODbL.",
  "timestamp": "2026-08-17T11:20:06Z",
  "features": [
    {
      "type": "Feature",
      "properties": {
        "@id": "way/300264173",
        "crop": "yes",
        "landuse": "farmland"
      },
      "geometry": {
        "type": "Polygon",
        "coordinates": [
          [
            [
              77.1284321,
              28.7554377
            ],
            [
              77.1285574,
              28.7556178
            ],
            [
              77.1256177,
              28.7587405
            ],
            [
              77.1196096,
              28.7651548
            ],
            [
              77.1146743,
              28.770459
            ],
            [
              77.110898,
              28.77068
            ],
            [
              77.1102111,
              28.7684841
            ],
            [
              77.1084087,
              28.7650419
            ],
            [
              77.1071856,
              28.7636876
            ],
            [
              77.1119063,
              28.7592672
            ],
            [
              77.1231716,
              28.7504069
            ],
            [
              77.1233003,
              28.7538495
            ],
            [
              77.1268657,
              28.7537282
            ],
            [
              77.1261404,
              28.7547105
            ],
            [
              77.1235891,
              28.7547708
            ],
            [
              77.1235891,
              28.7564648
            ],
            [
              77.1235991,
              28.7565357
            ],
            [
              77.1255971,
              28.7580744
            ],
            [
              77.1284321,
              28.7554377
            ]
          ]
        ]
      },
      "id": "way/300264173"
    },
    {
      "type": "Feature",
      "properties": {
        "@id": "way/734289305",
        "addr:city": "Delhi",
        "addr:housenumber": "In Front of CVR Hostel",
        "addr:postcode": "110042",
        "addr:street": "Yamuna Marg, Delhi Technological University",
        "description": "Park with lush green grass for outdoor activities and sports. Also has an indoor hall with facilities of indoor games.",
        "landuse": "recreation_ground",
        "name": "Sports Complex",
        "opening_hours": "24/7",
        "operator": "Goverment of Delhi",
        "website": "https://www.dtu.ac.in/"
      },
      "geometry": {
        "type": "Polygon",
        "coordinates": [
          [
            [
              77.1143633,
              28.7534249
            ],
            [
              77.1149656,
              28.7530597
            ],
            [
              77.1150622,
              28.7528481
            ],
            [
              77.1150595,
              28.7526341
            ],
            [
              77.1150729,
              28.7525353
            ],
            [
              77.1154457,
              28.7523049
            ],
            [
              77.1154538,
              28.751764
            ],
            [
              77.115199,
              28.7517617
            ],
            [
              77.1152343,
              28.7514505
            ],
            [
              77.1175218,
              28.7515289
            ],
            [
              77.1180235,
              28.7520115
            ],
            [
              77.1180984,
              28.7521144
            ],
            [
              77.1181199,
              28.7523002
            ],
            [
              77.1182165,
              28.7523825
            ],
            [
              77.1184605,
              28.752406
            ],
            [
              77.1185678,
              28.7524953
            ],
            [
              77.1187115,
              28.7526776
            ],
            [
              77.1158471,
              28.7548801
            ],
            [
              77.1143633,
              28.7534249
            ]
          ]
        ]
      },
      "id": "way/734289305"
    },
    {
      "type": "Feature",
      "properties": {
        "@id": "way/742055802",
        "landuse": "residential"
      },
      "geometry": {
        "type": "Polygon",
        "coordinates": [
          [
            [
              77.1114182,
              28.7463714
            ],
            [
              77.111942,
              28.7459618
            ],
            [
              77.1117297,
              28.7453412
            ],
            [
              77.1134427,
              28.7450061
            ],
            [
              77.1142637,
              28.7449006
            ],
            [
              77.1149079,
              28.7450682
            ],
            [
              77.1148229,
              28.7453785
            ],
            [
              77.1140018,
              28.7461418
            ],
            [
              77.1139735,
              28.7464397
            ],
            [
              77.1140585,
              28.7465949
            ],
            [
              77.1139207,
              28.7480065
            ],
            [
              77.1133434,
              28.7479352
            ],
            [
              77.1132743,
              28.7476928
            ],
            [
              77.1129165,
              28.7476964
            ],
            [
              77.1121969,
              28.7474291
            ],
            [
              77.1118188,
              28.7471083
            ],
            [
              77.1114182,
              28.7463714
            ]
          ]
        ]
      },
      "id": "way/742055802"
    },
    {
      "type": "Feature",
      "properties": {
        "@id": "way/742055803",
        "landuse": "industrial"
      },
      "geometry": {
        "type": "Polygon",
        "coordinates": [
          [
            [
              77.1106951,
              28.7493447
            ],
            [
              77.1096055,
              28.7455665
            ],
            [
              77.1115895,
              28.7453526
            ],
            [
              77.1118334,
              28.7459229
            ],
            [
              77.1112968,
              28.7463507
            ],
            [
              77.1116708,
              28.7472489
            ],
            [
              77.1123863,
              28.7477265
            ],
            [
              77.1131181,
              28.7478477
            ],
            [
              77.1134713,
              28.74886
            ],
            [
              77.1120245,
              28.749407
            ],
            [
              77.1121774,
              28.7498981
            ],
            [
              77.1107985,
              28.7498253
            ],
            [
              77.1106951,
              28.7493447
            ]
          ]
        ]
      },
      "id": "way/742055803"
    },
    {
      "type": "Feature",
      "properties": {
        "@id": "way/792065729",
        "description": "Permanent Lake residing in the campus of Delhi Technological University. Depth of the lake is deeper than 6 feet.",
        "intermittent": "no",
        "name": "DTU Lake",
        "natural": "water",
        "water": "lake"
      },
      "geometry": {
        "type": "Polygon",
        "coordinates": [
          [
            [
              77.1134933,
              28.7498683
            ],
            [
              77.11347,
              28.7498765
            ],
            [
              77.113442,
              28.7498827
            ],
            [
              77.1134116,
              28.7498909
            ],
            [
              77.1133906,
              28.7499052
            ],
            [
              77.1133696,
              28.7498991
            ],
            [
              77.1133322,
              28.7499113
            ],
            [
              77.1133159,
              28.7499277
            ],
            [
              77.1132785,
              28.7499379
            ],
            [
              77.1132505,
              28.7499502
            ],
            [
              77.1132248,
              28.7499728
            ],
            [
              77.1132085,
              28.749985
            ],
            [
              77.1131851,
              28.7500035
            ],
            [
              77.1131734,
              28.7500198
            ],
            [
              77.1131501,
              28.7500362
            ],
            [
              77.1131337,
              28.7500485
            ],
            [
              77.1131104,
              28.7500321
            ],
            [
              77.113094,
              28.7500198
            ],
            [
              77.1130543,
              28.7500301
            ],
            [
              77.113031,
              28.7500444
            ],
            [
              77.1130006,
              28.7500485
            ],
            [
              77.112975,
              28.7500444
            ],
            [
              77.1129493,
              28.7500628
            ],
            [
              77.1129259,
              28.7500731
            ],
            [
              77.1128909,
              28.7500731
            ],
            [
              77.1128419,
              28.7500731
            ],
            [
              77.1127905,
              28.7500649
            ],
            [
              77.1127578,
              28.7500403
            ],
            [
              77.1127158,
              28.7500219
            ],
            [
              77.1126761,
              28.7500014
            ],
            [
              77.112634,
              28.7499707
            ],
            [
              77.1126084,
              28.7499379
            ],
            [
              77.1125897,
              28.7499072
            ],
            [
              77.112571,
              28.7498888
            ],
            [
              77.1125453,
              28.7498765
            ],
            [
              77.112522,
              28.7498438
            ],
            [
              77.1125336,
              28.749811
            ],
            [
              77.1125383,
              28.7497926
            ],
            [
              77.112522,
              28.749766
            ],
            [
              77.1125103,
              28.7497189
            ],
            [
              77.1125173,
              28.7496882
            ],
            [
              77.1125243,
              28.7496493
            ],
            [
              77.1125103,
              28.7496125
            ],
            [
              77.1125103,
              28.7495879
            ],
            [
              77.1125313,
              28.7495695
            ],
            [
              77.112564,
              28.7495469
            ],
            [
              77.1125967,
              28.7495224
            ],
            [
              77.1126224,
              28.7495019
            ],
            [
              77.1126434,
              28.7494732
            ],
            [
              77.1126714,
              28.7494405
            ],
            [
              77.1126714,
              28.7494118
            ],
            [
              77.1126761,
              28.749375
            ],
            [
              77.1127111,
              28.7493627
            ],
            [
              77.1127391,
              28.7493463
            ],
            [
              77.1127648,
              28.7493402
            ],
            [
              77.1127835,
              28.749334
            ],
            [
              77.1128045,
              28.7493218
            ],
            [
              77.1128325,
              28.7493115
            ],
            [
              77.1128535,
              28.7492972
            ],
            [
              77.1128839,
              28.7492849
            ],
            [
              77.1129142,
              28.7492624
            ],
            [
              77.1129539,
              28.7492501
            ],
            [
              77.1129866,
              28.749246
            ],
            [
              77.1130123,
              28.7492399
            ],
            [
              77.113038,
              28.7492173
            ],
            [
              77.1130684,
              28.749203
            ],
            [
              77.1131068,
              28.7492048
            ],
            [
              77.1131432,
              28.7491835
            ],
            [
              77.1131712,
              28.7491624
            ],
            [
              77.1131988,
              28.74919
            ],
            [
              77.1132254,
              28.7492215
            ],
            [
              77.1132511,
              28.749249
            ],
            [
              77.1132809,
              28.7492767
            ],
            [
              77.1132862,
              28.7493162
            ],
            [
              77.1133135,
              28.7493456
            ],
            [
              77.1133084,
              28.7493714
            ],
            [
              77.113302,
              28.7494358
            ],
            [
              77.1133284,
              28.7495153
            ],
            [
              77.1133458,
              28.7495775
            ],
            [
              77.1133738,
              28.7496448
            ],
            [
              77.113463,
              28.7497684
            ],
            [
              77.1134933,
              28.7498683
            ]
          ]
        ]
      },
      "id": "way/792065729"
    },
    {
      "type": "Feature",
      "properties": {
        "@id": "way/1117974333",
        "landuse": "residential",
        "name": "APJ Hostel",
        "operator": "Delhi Technological University",
        "tourism": "hostel",
        "type": "hostel"
      },
      "geometry": {
        "type": "Polygon",
        "coordinates": [
          [
            [
              77.1118187,
              28.7506724
            ],
            [
              77.1117627,
              28.7506648
            ],
            [
              77.1117864,
              28.7505234
            ],
            [
              77.1118832,
              28.7505328
            ],
            [
              77.1118897,
              28.750497
            ],
            [
              77.1119865,
              28.7505064
            ],
            [
              77.1119801,
              28.7505441
            ],
            [
              77.112135,
              28.7505592
            ],
            [
              77.1121436,
              28.750512
            ],
            [
              77.1122017,
              28.7505177
            ],
            [
              77.1121802,
              28.7506479
            ],
            [
              77.1121307,
              28.7506422
            ],
            [
              77.1121285,
              28.7506724
            ],
            [
              77.1120618,
              28.7506648
            ],
            [
              77.1120661,
              28.7506403
            ],
            [
              77.1119844,
              28.7506309
            ],
            [
              77.1119822,
              28.7506535
            ],
            [
              77.1118961,
              28.7506441
            ],
            [
              77.1118961,
              28.7506233
            ],
            [
              77.1118251,
              28.7506177
            ],
            [
              77.1118187,
              28.7506724
            ]
          ]
        ]
      },
      "id": "way/1117974333"
    },
    {
      "type": "Feature",
      "properties": {
        "@id": "way/1549538734",
        "access": "permit",
        "amenity": "parking",
        "fee": "no",
        "operator": "DTU Admin",
        "operator:type": "private",
        "parking": "surface"
      },
      "geometry": {
        "type": "Polygon",
        "coordinates": [
          [
            [
              77.1158312,
              28.7463799
            ],
            [
              77.1159404,
              28.7457366
            ],
            [
              77.1169569,
              28.7455967
            ],
            [
              77.1171144,
              28.746065
            ],
            [
              77.1158312,
              28.7463799
            ]
          ]
        ]
      },
      "id": "way/1549538734"
    }
  ]
}